STARLINK-33815          
1 63497U 25071E   25202.19270641  .00013058  00000+0  45258-3 0  9998
2 63497  53.1594 135.4240 0000943 115.2365 244.8733 15.30174185 17325
STARLINK-33833          
1 63498U 25071F   25202.83743167  .00020584  00000+0  70509-3 0  9997
2 63498  53.1578 132.3389 0001624 105.7264 254.3915 15.30204645 17421
STARLINK-33534          
1 63499U 25071G   25202.96385839  .00028181  00000+0  96020-3 0  9997
2 63499  53.1586 131.7064 0001470  90.1797 269.9373 15.30193450 17422
STARLINK-33838          
1 63500U 25071H   25202.94695434  .00018309  00000+0  62871-3 0  9991
2 63500  53.1592 131.5964 0001136  57.1643 302.9467 15.30203147 17237
STARLINK-33837          
1 63501U 25071J   25202.19905710  .00018564  00000+0  63727-3 0  9994
2 63501  53.1593 135.4671 0001047  91.9810 268.1311 15.30203844 17268
STARLINK-33818          
1 63502U 25071K   25202.94378769  .00015660  00000+0  53954-3 0  9991
2 63502  53.1601 131.5758 0001182  86.9255 273.1881 15.30212347 17445
STARLINK-33583          
1 63503U 25071L   25202.81169127  .00019012  00000+0  65227-3 0  9995
2 63503  53.1600 135.0079 0001554  96.5416 263.5762 15.30205003 17395
STARLINK-33811          
1 63504U 25071M   25202.53090697  .00017582  00000+0  60413-3 0  9992
2 63504  53.1606 133.9778 0001332  87.1098 273.0055 15.30212082 17319
STARLINK-33825          
1 63505U 25071N   25202.54240276  .00017461  00000+0  60009-3 0  9991
2 63505  53.1606 133.3360 0001334  92.8863 267.2291 15.30209453 17399
STARLINK-33792          
1 63506U 25071P   25202.54662224  .00013520  00000+0  46766-3 0  9999
2 63506  53.1614 133.3600 0001328 121.9301 238.1829 15.30208002 17337
STARLINK-33843          
1 63507U 25071Q   25202.95750024  .00011502  00000+0  39991-3 0  9991
2 63507  53.1572 131.6263 0001180  93.2573 266.8563 15.30195774 17429
STARLINK-33809          
1 63508U 25071R   25202.94589449  .00021138  00000+0  72362-3 0  9997
2 63508  53.1582 131.5491 0001187  90.4434 269.6703 15.30206448 17388
STARLINK-33678          
1 63509U 25071S   25202.96172188  .00002472  00000+0  95568-4 0  9992
2 63509  53.1568 131.6512 0000935  83.9412 276.1695 15.30200097 17175
STARLINK-33764          
1 63510U 25071T   25202.79532481  .00015655  00000+0  53938-3 0  9992
2 63510  53.1590 132.7439 0001341  91.2334 268.8821 15.30212266 17393
STARLINK-33804          
1 63511U 25071U   25202.52140381  .00016935  00000+0  58250-3 0  9992
2 63511  53.1585 133.8779 0001167  90.0057 270.1078 15.30206124 17006
STARLINK-33751          
1 63512U 25071V   25202.51507484  .00018339  00000+0  62893-3 0  9991
2 63512  53.1577 133.8389 0001327  82.4207 277.6945 15.30243882 17350
STARLINK-33750          
1 63513U 25071W   25202.51823997  .00022692  00000+0  77580-3 0  9998
2 63513  53.1576 133.8581 0001676  87.9979 272.1214 15.30205458 17353
STARLINK-33786          
1 63514U 25071X   25202.52668104  .00011733  00000+0  40757-3 0  9997
2 63514  53.1586 133.9085 0001536  88.3115 271.8062 15.30205994 16998
STARLINK-33796          
1 63515U 25071Y   25202.94061566  .00017792  00000+0  61124-3 0  9995
2 63515  53.1590 131.5093 0001297  76.9994 283.1151 15.30208964 17445
STARLINK-33785          
1 63516U 25071Z   25202.13164789  .00056423  00000+0  19034-2 0  9994
2 63516  53.1586 135.7090 0001248  95.2997 264.8146 15.30188652 17291
STARLINK-33803          
1 63517U 25071AA  25202.94800315  .00020661  00000+0  70774-3 0  9990
2 63517  53.1591 131.5539 0001180  75.8017 284.3115 15.30200400 17448
STARLINK-33807          
1 63518U 25071AB  25202.96436318  .00016061  00000+0  55324-3 0  9994
2 63518  53.1575 133.7948 0001074  71.5528 288.5590 15.30197996 17416
STARLINK-33787          
1 63519U 25071AC  25202.83901031  .00020554  00000+0  70415-3 0  9990
2 63519  53.1576 134.4386 0001756 108.0406 252.0786 15.30201203 17027
STARLINK-11669 [DTC]    
1 63548U 25075A   25202.43892776  .00235978  00000+0  17877-2 0  9997
2 63548  42.9994 107.2823 0000843   6.8408 353.2471 15.70881051 16883
STARLINK-11665 [DTC]    
1 63549U 25075B   25202.78337788  .00148950  00000+0  11390-2 0  9990
2 63549  42.9989 105.5805 0001730 251.2796 108.7884 15.70936017 16931
STARLINK-11667 [DTC]    
1 63550U 25075C   25202.10520022  .00157660  00000+0  12071-2 0  9998
2 63550  43.0030 109.9654 0002382 274.8250  85.2345 15.70876631 16826
STARLINK-11695 [DTC]    
1 63551U 25075D   25202.43983121  .00223145  00000+0  16924-2 0  9991
2 63551  42.9997 107.2892 0000826 282.3300  77.7476 15.70893837 16887
STARLINK-11685 [DTC]    
1 63552U 25075E   25202.76744987  .00164656  00000+0  12588-2 0  9996
2 63552  42.9992 105.4497 0001217 261.2787  98.7943 15.70889991 16938
STARLINK-11697 [DTC]    
1 63553U 25075F   25202.77276357  .00268602  00000+0  20208-2 0  9993
2 63553  42.9998 105.4920 0001653 252.1524 107.9163 15.70946550 16930
STARLINK-11680 [DTC]    
1 63554U 25075G   25202.79930042  .00239731  00000+0  18039-2 0  9994
2 63554  43.0000 105.7043 0002150 250.2808 109.7827 15.71030435 16937
STARLINK-11687 [DTC]    
1 63555U 25075H   25202.78868632  .00206700  00000+0  15672-2 0  9999
2 63555  43.0024 105.6178 0002459 254.6811 105.3785 15.70951645 16935
STARLINK-11626 [DTC]    
1 63556U 25075J   25202.43373818  .00180581  00000+0  13776-2 0  9990
2 63556  42.9998 108.1325 0000935 272.3243  87.7518 15.70889176 16878
STARLINK-11668 [DTC]    
1 63557U 25075K   25202.11050865  .00155118  00000+0  11880-2 0  9992
2 63557  43.0012 110.0063 0002322 274.0090  86.0512 15.70877852 16829
STARLINK-11657 [DTC]    
1 63558U 25075L   25202.09458059  .00222383  00000+0  16885-2 0  9996
2 63558  43.0020 109.8767 0002238 269.5551  90.5060 15.70869337 16820
STARLINK-11606 [DTC]    
1 63559U 25075M   25202.12631467  .00172746  00000+0  13204-2 0  9996
2 63559  42.9983 109.2375 0000737 308.4240  51.6561 15.70868058 16830
STARLINK-11592 [DTC]    
1 63560U 25075N   25202.77806680  .00191951  00000+0  14626-2 0  9998
2 63560  42.9994 105.5318 0002247 260.5628  99.4985 15.70880415 16938
STARLINK-32953          
1 63561U 25075P   25202.86429316  .00013108  00000+0  48494-3 0  9994
2 63561  42.9984 134.3859 0000885 267.2558  92.8192 15.27584078 16621
STARLINK-32951          
1 63562U 25075Q   25202.86043507  .00019853  00000+0  72885-3 0  9993
2 63562  42.9981 134.3271 0000320 303.5643  56.5178 15.27586917 16636
STARLINK-32958          
1 63563U 25075R   25202.85015007  .00012963  00000+0  47961-3 0  9999
2 63563  42.9989 134.2826 0000663 257.3358 102.7419 15.27590508 16621
STARLINK-32928          
1 63564U 25075S   25202.83345337  .00022081  00000+0  80918-3 0  9991
2 63564  42.9948 134.1517 0000129  87.3354 272.7513 15.27592998 16636
STARLINK-32687          
1 63565U 25075T   25202.85915243  .00016092  00000+0  59286-3 0  9992
2 63565  42.9967 134.3165 0000201 290.6200  69.4630 15.27587242 16636
STARLINK-32950          
1 63566U 25075U   25202.82830052  .00014394  00000+0  53148-3 0  9998
2 63566  42.9983 134.0465 0001043 247.4685 112.6056 15.27584455 16622
STARLINK-32954          
1 63567U 25075V   25202.84114638  .00003647  00000+0  14202-3 0  9993
2 63567  43.0008 134.1800 0001083 262.6040  97.4689 15.27571034 16626
STARLINK-32940          
1 63568U 25075W   25202.84630071  .00031349  00000+0  11437-2 0  9994
2 63568  42.9954 134.2197 0000379  35.9403 324.1474 15.27585517 16629
STARLINK-32959          
1 63569U 25076A   25202.66907537  .00011708  00000+0  43413-3 0  9997
2 63569  42.9999 190.3543 0001663 270.8101  89.2560 15.27591850 16452
STARLINK-32956          
1 63570U 25076B   25202.67664263  .00014774  00000+0  54526-3 0  9999
2 63570  42.9959 189.5434 0000572 282.5691  77.5097 15.27583320 16459
STARLINK-33722          
1 63571U 25076C   25202.23355516  .00020273  00000+0  74338-3 0  9994
2 63571  42.9990 188.7111 0001216 277.6091  82.4623 15.27616012 16403
STARLINK-33739          
1 63572U 25076D   25202.66056093  .00012100  00000+0  44844-3 0  9999
2 63572  42.9995 186.7617 0001478 266.9581  93.1102 15.27584711 16493
STARLINK-33683          
1 63573U 25076E   25202.65927056  .00013984  00000+0  51647-3 0  9995
2 63573  43.0001 186.7505 0001625 263.6827  96.3840 15.27595599 16491
STARLINK-33732          
1 63575U 25076G   25202.38489052  .00011268  00000+0  41813-3 0  9993
2 63575  42.9996 188.1266 0001362 256.5490 103.5209 15.27599660 16212
STARLINK-33800          
1 63576U 25076H   25202.94765454  .00013749  00000+0  50807-3 0  9998
2 63576  42.9977 184.6045 0001377 229.5656 130.5076 15.27588469 16541
STARLINK-33632          
1 63577U 25076J   25202.65669818  .00017293  00000+0  63605-3 0  9992
2 63577  43.0007 186.7272 0001922 266.8363  93.2269 15.27601249 16493
STARLINK-33719          
1 63578U 25076K   25202.23740037  .00017760  00000+0  65315-3 0  9999
2 63578  42.9993 188.7389 0000810 266.6228  93.4531 15.27590060 16436
STARLINK-33755          
1 63579U 25076L   25202.95792010  .00014181  00000+0  52365-3 0  9992
2 63579  42.9987 184.6045 0001428 264.3042  95.7647 15.27592464 16544
STARLINK-33752          
1 63580U 25076M   25202.64385393  .00012966  00000+0  47983-3 0  9991
2 63580  42.9934 186.6264 0001178 267.6918  92.3798 15.27582776 16492
STARLINK-33714          
1 63581U 25076N   25202.94893878  .00015408  00000+0  56813-3 0  9993
2 63581  42.9999 184.6137 0003092 277.7381  82.3119 15.27585559 16548
STARLINK-33814          
1 63582U 25076P   25202.94251144  .00014667  00000+0  54120-3 0  9993
2 63582  43.0007 184.5682 0001494 268.5280  91.5401 15.27596085 16547
STARLINK-33817          
1 63583U 25076Q   25202.67454362  .00013370  00000+0  49435-3 0  9994
2 63583  43.0028 185.9962 0001888 276.6706  83.3931 15.27588949 16498
STARLINK-33820          
1 63584U 25076R   25202.66683016  .00018290  00000+0  67208-3 0  9998
2 63584  43.0021 185.9387 0001980 266.5924  93.4701 15.27600749 16508
